{
  "updated": "2026-07-10T13:08:14.500Z",
  "capsules": {
    "66664": {
      "name": "SOYUZ-MS 28",
      "family": "soyuz",
      "phase": "docked",
      "stationKey": "iss",
      "since": "2026-07-03T10:34:14.509Z",
      "distanceKm": 0,
      "altitudeKm": 427.4,
      "inclinationDeg": 51.63,
      "l1": "1 66664U 25275A   26191.15356376  .00005628  00000+0  11035-3 0  9997",
      "l2": "2 66664  51.6302 186.4276 0006683 277.8890  82.1339 15.48965714645703"
    },
    "67796": {
      "name": "CREW DRAGON 12",
      "family": "dragon",
      "phase": "docked",
      "stationKey": "iss",
      "since": "2026-07-03T10:34:14.509Z",
      "distanceKm": 0,
      "altitudeKm": 427.4,
      "inclinationDeg": 51.63,
      "l1": "1 67796U 26031A   26191.15356376  .00005628  00000+0  11035-3 0  9995",
      "l2": "2 67796  51.6302 186.4276 0006683 277.8890  82.1339 15.48965714628093"
    },
    "69180": {
      "name": "SHENZHOU-23 (SZ-23)",
      "family": "shenzhou",
      "phase": "docked",
      "stationKey": "css",
      "since": "2026-07-03T10:34:14.509Z",
      "distanceKm": 0,
      "altitudeKm": 402.8,
      "inclinationDeg": 41.469,
      "l1": "1 69180U 26113A   26191.21519186  .00001478  00000+0  23427-4 0  9990",
      "l2": "2 69180  41.4687 182.0167 0002669 284.9103  75.1440 15.58015945295922"
    }
  },
  "events": []
}
